[{"OBJECT_NAME":"CALSPHERE 1","OBJECT_ID":"1964-063C","EPOCH":"2026-04-26T20:22:20.390304","MEAN_MOTION":13.76561435,"ECCENTRICITY":0.0028393,"INCLINATION":90.2216,"RA_OF_ASC_NODE":70.5617,"ARG_OF_PERICENTER":86.4593,"MEAN_ANOMALY":334.406,"EPHEMERIS_TYPE":0,"CLASSIFICATION_TYPE":"U","NORAD_CAT_ID":900,"ELEMENT_SET_NO":999,"REV_AT_EPOCH":6436,"BSTAR":0.00069156,"MEAN_MOTION_DOT":6.89e-6,"MEAN_MOTION_DDOT":0},{"OBJECT_NAME":"CALSPHERE 2","OBJECT_ID":"1964-063E","EPOCH":"2026-04-26T20:25:21.433728","MEAN_MOTION":13.52896223,"ECCENTRICITY":0.0019378,"INCLINATION":90.2344,"RA_OF_ASC_NODE":74.5622,"ARG_OF_PERICENTER":22.3954,"MEAN_ANOMALY":37.5334,"EPHEMERIS_TYPE":0,"CLASSIFICATION_TYPE":"U","NORAD_CAT_ID":902,"ELEMENT_SET_NO":999,"REV_AT_EPOCH":84932,"BSTAR":9.7129e-5,"MEAN_MOTION_DOT":7.3e-7,"MEAN_MOTION_DDOT":0},{"OBJECT_NAME":"LCS 1","OBJECT_ID":"1965-034C","EPOCH":"2026-04-26T18:34:34.379328","MEAN_MOTION":9.89310174,"ECCENTRICITY":0.0013195,"INCLINATION":32.144,"RA_OF_ASC_NODE":299.103,"ARG_OF_PERICENTER":299.1037,"MEAN_ANOMALY":60.8139,"EPHEMERIS_TYPE":0,"CLASSIFICATION_TYPE":"U","NORAD_CAT_ID":1361,"ELEMENT_SET_NO":999,"REV_AT_EPOCH":20479,"BSTAR":0.00067713,"MEAN_MOTION_DOT":1.4e-7,"MEAN_MOTION_DDOT":0},{"OBJECT_NAME":"TEMPSAT 1","OBJECT_ID":"1965-065E","EPOCH":"2026-04-26T19:55:44.680800","MEAN_MOTION":13.33591578,"ECCENTRICITY":0.0070574,"INCLINATION":90.0009,"RA_OF_ASC_NODE":212.5835,"ARG_OF_PERICENTER":34.3741,"MEAN_ANOMALY":90.7139,"EPHEMERIS_TYPE":0,"CLASSIFICATION_TYPE":"U","NORAD_CAT_ID":1512,"ELEMENT_SET_NO":999,"REV_AT_EPOCH":95320,"BSTAR":8.3808e-6,"MEAN_MOTION_DOT":1.3e-7,"MEAN_MOTION_DDOT":0},{"OBJECT_NAME":"CALSPHERE 4A","OBJECT_ID":"1965-065H","EPOCH":"2026-04-26T19:21:13.786848","MEAN_MOTION":13.3626841,"ECCENTRICITY":0.0067752,"INCLINATION":89.8963,"RA_OF_ASC_NODE":123,"ARG_OF_PERICENTER":247.9615,"MEAN_ANOMALY":287.0634,"EPHEMERIS_TYPE":0,"CLASSIFICATION_TYPE":"U","NORAD_CAT_ID":1520,"ELEMENT_SET_NO":999,"REV_AT_EPOCH":95584,"BSTAR":0.00022172,"MEAN_MOTION_DOT":1.24e-6,"MEAN_MOTION_DDOT":0},{"OBJECT_NAME":"OPS 5712 (P/L 160)","OBJECT_ID":"1967-053A","EPOCH":"2026-04-26T20:40:22.838880","MEAN_MOTION":14.77005667,"ECCENTRICITY":0.0002067,"INCLINATION":69.9167,"RA_OF_ASC_NODE":164.0233,"ARG_OF_PERICENTER":242.9268,"MEAN_ANOMALY":117.1669,"EPHEMERIS_TYPE":0,"CLASSIFICATION_TYPE":"U","NORAD_CAT_ID":2826,"ELEMENT_SET_NO":999,"REV_AT_EPOCH":5865,"BSTAR":0.00096655,"MEAN_MOTION_DOT":6.753e-5,"MEAN_MOTION_DDOT":0},{"OBJECT_NAME":"OPS 5712 (P/L 153)","OBJECT_ID":"1967-053H","EPOCH":"2026-04-26T16:59:09.104928","MEAN_MOTION":13.96820648,"ECCENTRICITY":0.0010062,"INCLINATION":69.9743,"RA_OF_ASC_NODE":225.6452,"ARG_OF_PERICENTER":264.2421,"MEAN_ANOMALY":95.7538,"EPHEMERIS_TYPE":0,"CLASSIFICATION_TYPE":"U","NORAD_CAT_ID":2874,"ELEMENT_SET_NO":999,"REV_AT_EPOCH":99959,"BSTAR":4.9789e-5,"MEAN_MOTION_DOT":1.6e-7,"MEAN_MOTION_DDOT":0},{"OBJECT_NAME":"RIGIDSPHERE 2 (LCS 4)","OBJECT_ID":"1971-067E","EPOCH":"2026-04-26T19:58:09.276384","MEAN_MOTION":14.37810084,"ECCENTRICITY":0.0061689,"INCLINATION":87.6251,"RA_OF_ASC_NODE":353.0723,"ARG_OF_PERICENTER":44.786,"MEAN_ANOMALY":315.8295,"EPHEMERIS_TYPE":0,"CLASSIFICATION_TYPE":"U","NORAD_CAT_ID":5398,"ELEMENT_SET_NO":999,"REV_AT_EPOCH":86650,"BSTAR":0.00020254,"MEAN_MOTION_DOT":6.42e-6,"MEAN_MOTION_DDOT":0},{"OBJECT_NAME":"COSMOS 2493 (SKRL-756 1)","OBJECT_ID":"2013-078A","EPOCH":"2026-04-26T18:55:40.864224","MEAN_MOTION":15.01877489,"ECCENTRICITY":0.0014383,"INCLINATION":82.4108,"RA_OF_ASC_NODE":311.4694,"ARG_OF_PERICENTER":61.6899,"MEAN_ANOMALY":298.5774,"EPHEMERIS_TYPE":0,"CLASSIFICATION_TYPE":"U","NORAD_CAT_ID":39490,"ELEMENT_SET_NO":999,"REV_AT_EPOCH":67024,"BSTAR":0.00020485,"MEAN_MOTION_DOT":2.707e-5,"MEAN_MOTION_DDOT":0},{"OBJECT_NAME":"COSMOS 2494 (SKRL-756 2)","OBJECT_ID":"2013-078B","EPOCH":"2026-04-26T19:28:57.209664","MEAN_MOTION":15.04547048,"ECCENTRICITY":0.0016475,"INCLINATION":82.4102,"RA_OF_ASC_NODE":301.0479,"ARG_OF_PERICENTER":24.2304,"MEAN_ANOMALY":335.9694,"EPHEMERIS_TYPE":0,"CLASSIFICATION_TYPE":"U","NORAD_CAT_ID":39491,"ELEMENT_SET_NO":999,"REV_AT_EPOCH":67108,"BSTAR":0.00023283,"MEAN_MOTION_DOT":3.299e-5,"MEAN_MOTION_DDOT":0}]
